"type","language","license","eventID","rightsHolder","accessRights","institutionCode","datasetName","ownerInstitutionCode","basisOfREcord","countryCode","Municipality","kingdom","nomenclaturalCode","locality","parentEventID","eventDate"
"event","en","https://creativecommons.org/licenses/by-nc/4.0/","modirisk:Natoye:NT1:1","RBINS","http://www.inbo.be/en/norms-for-data-use","RBINS","MODIRISK:Monitoring of Mosquito Vectors, Longitudinal study","RBINS","humanObservation","BE","Natoye","Animalia","ICZN","NT1","Natoye:NT1","1/06/2009"
"event","en","https://creativecommons.org/licenses/by-nc/4.0/","modirisk:Natoye:NT1:10","RBINS","http://www.inbo.be/en/norms-for-data-use","RBINS","MODIRISK:Monitoring of Mosquito Vectors, Longitudinal study","RBINS","humanObservation","BE","Natoye","Animalia","ICZN","NT1","Natoye:NT1","5/10/2009"
"event","en","https://creativecommons.org/licenses/by-nc/4.0/","modirisk:Natoye:NT1:2","RBINS","http://www.inbo.be/en/norms-for-data-use","RBINS","MODIRISK:Monitoring of Mosquito Vectors, Longitudinal study","RBINS","humanObservation","BE","Natoye","Animalia","ICZN","NT1","Natoye:NT1","15/06/2009"
"event","en","https://creativecommons.org/licenses/by-nc/4.0/","modirisk:Natoye:NT1:3","RBINS","http://www.inbo.be/en/norms-for-data-use","RBINS","MODIRISK:Monitoring of Mosquito Vectors, Longitudinal study","RBINS","humanObservation","BE","Natoye","Animalia","ICZN","NT1","Natoye:NT1","29/06/2009"
"event","en","https://creativecommons.org/licenses/by-nc/4.0/","modirisk:Natoye:NT1:4","RBINS","http://www.inbo.be/en/norms-for-data-use","RBINS","MODIRISK:Monitoring of Mosquito Vectors, Longitudinal study","RBINS","humanObservation","BE","Natoye","Animalia","ICZN","NT1","Natoye:NT1","13/07/2009"
"event","en","https://creativecommons.org/licenses/by-nc/4.0/","modirisk:Natoye:NT1:5","RBINS","http://www.inbo.be/en/norms-for-data-use","RBINS","MODIRISK:Monitoring of Mosquito Vectors, Longitudinal study","RBINS","humanObservation","BE","Natoye","Animalia","ICZN","NT1","Natoye:NT1","27/07/2009"
"event","en","https://creativecommons.org/licenses/by-nc/4.0/","modirisk:Natoye:NT1:6","RBINS","http://www.inbo.be/en/norms-for-data-use","RBINS","MODIRISK:Monitoring of Mosquito Vectors, Longitudinal study","RBINS","humanObservation","BE","Natoye","Animalia","ICZN","NT1","Natoye:NT1","10/08/2009"
"event","en","https://creativecommons.org/licenses/by-nc/4.0/","modirisk:Natoye:NT1:7","RBINS","http://www.inbo.be/en/norms-for-data-use","RBINS","MODIRISK:Monitoring of Mosquito Vectors, Longitudinal study","RBINS","humanObservation","BE","Natoye","Animalia","ICZN","NT1","Natoye:NT1","24/08/2009"
"event","en","https://creativecommons.org/licenses/by-nc/4.0/","modirisk:Natoye:NT1:8","RBINS","http://www.inbo.be/en/norms-for-data-use","RBINS","MODIRISK:Monitoring of Mosquito Vectors, Longitudinal study","RBINS","humanObservation","BE","Natoye","Animalia","ICZN","NT1","Natoye:NT1","7/09/2009"
"event","en","https://creativecommons.org/licenses/by-nc/4.0/","modirisk:Natoye:NT1:9","RBINS","http://www.inbo.be/en/norms-for-data-use","RBINS","MODIRISK:Monitoring of Mosquito Vectors, Longitudinal study","RBINS","humanObservation","BE","Natoye","Animalia","ICZN","NT1","Natoye:NT1","21/09/2009"
"event","en","https://creativecommons.org/licenses/by-nc/4.0/","modirisk:Natoye:NT2:1","RBINS","http://www.inbo.be/en/norms-for-data-use","RBINS","MODIRISK:Monitoring of Mosquito Vectors, Longitudinal study","RBINS","humanObservation","BE","Natoye","Animalia","ICZN","NT2","Natoye:NT2","4/05/2009"
"event","en","https://creativecommons.org/licenses/by-nc/4.0/","modirisk:Natoye:NT2:10","RBINS","http://www.inbo.be/en/norms-for-data-use","RBINS","MODIRISK:Monitoring of Mosquito Vectors, Longitudinal study","RBINS","humanObservation","BE","Natoye","Animalia","ICZN","NT2","Natoye:NT2","21/09/2009"
"event","en","https://creativecommons.org/licenses/by-nc/4.0/","modirisk:Natoye:NT2:11","RBINS","http://www.inbo.be/en/norms-for-data-use","RBINS","MODIRISK:Monitoring of Mosquito Vectors, Longitudinal study","RBINS","humanObservation","BE","Natoye","Animalia","ICZN","NT2","Natoye:NT2","5/10/2009"
"event","en","https://creativecommons.org/licenses/by-nc/4.0/","modirisk:Natoye:NT2:2","RBINS","http://www.inbo.be/en/norms-for-data-use","RBINS","MODIRISK:Monitoring of Mosquito Vectors, Longitudinal study","RBINS","humanObservation","BE","Natoye","Animalia","ICZN","NT2","Natoye:NT2","1/06/2009"
"event","en","https://creativecommons.org/licenses/by-nc/4.0/","modirisk:Natoye:NT2:3","RBINS","http://www.inbo.be/en/norms-for-data-use","RBINS","MODIRISK:Monitoring of Mosquito Vectors, Longitudinal study","RBINS","humanObservation","BE","Natoye","Animalia","ICZN","NT2","Natoye:NT2","15/06/2009"
"event","en","https://creativecommons.org/licenses/by-nc/4.0/","modirisk:Natoye:NT2:4","RBINS","http://www.inbo.be/en/norms-for-data-use","RBINS","MODIRISK:Monitoring of Mosquito Vectors, Longitudinal study","RBINS","humanObservation","BE","Natoye","Animalia","ICZN","NT2","Natoye:NT2","29/06/2009"
"event","en","https://creativecommons.org/licenses/by-nc/4.0/","modirisk:Natoye:NT2:5","RBINS","http://www.inbo.be/en/norms-for-data-use","RBINS","MODIRISK:Monitoring of Mosquito Vectors, Longitudinal study","RBINS","humanObservation","BE","Natoye","Animalia","ICZN","NT2","Natoye:NT2","13/07/2009"
"event","en","https://creativecommons.org/licenses/by-nc/4.0/","modirisk:Natoye:NT2:6","RBINS","http://www.inbo.be/en/norms-for-data-use","RBINS","MODIRISK:Monitoring of Mosquito Vectors, Longitudinal study","RBINS","humanObservation","BE","Natoye","Animalia","ICZN","NT2","Natoye:NT2","27/07/2009"
"event","en","https://creativecommons.org/licenses/by-nc/4.0/","modirisk:Natoye:NT2:7","RBINS","http://www.inbo.be/en/norms-for-data-use","RBINS","MODIRISK:Monitoring of Mosquito Vectors, Longitudinal study","RBINS","humanObservation","BE","Natoye","Animalia","ICZN","NT2","Natoye:NT2","10/08/2009"
"event","en","https://creativecommons.org/licenses/by-nc/4.0/","modirisk:Natoye:NT2:8","RBINS","http://www.inbo.be/en/norms-for-data-use","RBINS","MODIRISK:Monitoring of Mosquito Vectors, Longitudinal study","RBINS","humanObservation","BE","Natoye","Animalia","ICZN","NT2","Natoye:NT2","24/08/2009"
"event","en","https://creativecommons.org/licenses/by-nc/4.0/","modirisk:Natoye:NT2:9","RBINS","http://www.inbo.be/en/norms-for-data-use","RBINS","MODIRISK:Monitoring of Mosquito Vectors, Longitudinal study","RBINS","humanObservation","BE","Natoye","Animalia","ICZN","NT2","Natoye:NT2","7/09/2009"
"event","en","https://creativecommons.org/licenses/by-nc/4.0/","modirisk:Natoye:Nt2:7","RBINS","http://www.inbo.be/en/norms-for-data-use","RBINS","MODIRISK:Monitoring of Mosquito Vectors, Longitudinal study","RBINS","humanObservation","BE","Natoye","Animalia","ICZN","NT2","Natoye:NT2","10/08/2009"
"event","en","https://creativecommons.org/licenses/by-nc/4.0/","modirisk:Ruiselede:1:1","RBINS","http://www.inbo.be/en/norms-for-data-use","RBINS","MODIRISK:Monitoring of Mosquito Vectors, Longitudinal study","RBINS","humanObservation","BE","Ruiselede","Animalia","ICZN","RU1","Ruiselede:R1","4/05/2009"
"event","en","https://creativecommons.org/licenses/by-nc/4.0/","modirisk:Ruiselede:1:10","RBINS","http://www.inbo.be/en/norms-for-data-use","RBINS","MODIRISK:Monitoring of Mosquito Vectors, Longitudinal study","RBINS","humanObservation","BE","Ruiselede","Animalia","ICZN","RU1","Ruiselede:R1","7/09/2009"
"event","en","https://creativecommons.org/licenses/by-nc/4.0/","modirisk:Ruiselede:1:11","RBINS","http://www.inbo.be/en/norms-for-data-use","RBINS","MODIRISK:Monitoring of Mosquito Vectors, Longitudinal study","RBINS","humanObservation","BE","Ruiselede","Animalia","ICZN","RU1","Ruiselede:R1","21/09/2009"
"event","en","https://creativecommons.org/licenses/by-nc/4.0/","modirisk:Ruiselede:1:12","RBINS","http://www.inbo.be/en/norms-for-data-use","RBINS","MODIRISK:Monitoring of Mosquito Vectors, Longitudinal study","RBINS","humanObservation","BE","Ruiselede","Animalia","ICZN","RU1","Ruiselede:R1","5/10/2009"
"event","en","https://creativecommons.org/licenses/by-nc/4.0/","modirisk:Ruiselede:1:2","RBINS","http://www.inbo.be/en/norms-for-data-use","RBINS","MODIRISK:Monitoring of Mosquito Vectors, Longitudinal study","RBINS","humanObservation","BE","Ruiselede","Animalia","ICZN","RU1","Ruiselede:R1","18/05/2009"
"event","en","https://creativecommons.org/licenses/by-nc/4.0/","modirisk:Ruiselede:1:3","RBINS","http://www.inbo.be/en/norms-for-data-use","RBINS","MODIRISK:Monitoring of Mosquito Vectors, Longitudinal study","RBINS","humanObservation","BE","Ruiselede","Animalia","ICZN","RU1","Ruiselede:R1","1/06/2009"
"event","en","https://creativecommons.org/licenses/by-nc/4.0/","modirisk:Ruiselede:1:4","RBINS","http://www.inbo.be/en/norms-for-data-use","RBINS","MODIRISK:Monitoring of Mosquito Vectors, Longitudinal study","RBINS","humanObservation","BE","Ruiselede","Animalia","ICZN","RU1","Ruiselede:R1","15/06/2009"
"event","en","https://creativecommons.org/licenses/by-nc/4.0/","modirisk:Ruiselede:1:5","RBINS","http://www.inbo.be/en/norms-for-data-use","RBINS","MODIRISK:Monitoring of Mosquito Vectors, Longitudinal study","RBINS","humanObservation","BE","Ruiselede","Animalia","ICZN","RU1","Ruiselede:R1","29/06/2009"
"event","en","https://creativecommons.org/licenses/by-nc/4.0/","modirisk:Ruiselede:1:6","RBINS","http://www.inbo.be/en/norms-for-data-use","RBINS","MODIRISK:Monitoring of Mosquito Vectors, Longitudinal study","RBINS","humanObservation","BE","Ruiselede","Animalia","ICZN","RU1","Ruiselede:R1","13/07/2009"
"event","en","https://creativecommons.org/licenses/by-nc/4.0/","modirisk:Ruiselede:1:7","RBINS","http://www.inbo.be/en/norms-for-data-use","RBINS","MODIRISK:Monitoring of Mosquito Vectors, Longitudinal study","RBINS","humanObservation","BE","Ruiselede","Animalia","ICZN","RU1","Ruiselede:R1","27/07/2009"
"event","en","https://creativecommons.org/licenses/by-nc/4.0/","modirisk:Ruiselede:1:8","RBINS","http://www.inbo.be/en/norms-for-data-use","RBINS","MODIRISK:Monitoring of Mosquito Vectors, Longitudinal study","RBINS","humanObservation","BE","Ruiselede","Animalia","ICZN","RU1","Ruiselede:R1","10/08/2009"
"event","en","https://creativecommons.org/licenses/by-nc/4.0/","modirisk:Ruiselede:1:9","RBINS","http://www.inbo.be/en/norms-for-data-use","RBINS","MODIRISK:Monitoring of Mosquito Vectors, Longitudinal study","RBINS","humanObservation","BE","Ruiselede","Animalia","ICZN","RU1","Ruiselede:R1","24/08/2009"
"event","en","https://creativecommons.org/licenses/by-nc/4.0/","modirisk:Ruiselede:2:13","RBINS","http://www.inbo.be/en/norms-for-data-use","RBINS","MODIRISK:Monitoring of Mosquito Vectors, Longitudinal study","RBINS","humanObservation","BE","Ruiselede","Animalia","ICZN","RU2","Ruiselede:R1","4/05/2009"
"event","en","https://creativecommons.org/licenses/by-nc/4.0/","modirisk:Ruiselede:2:14","RBINS","http://www.inbo.be/en/norms-for-data-use","RBINS","MODIRISK:Monitoring of Mosquito Vectors, Longitudinal study","RBINS","humanObservation","BE","Ruiselede","Animalia","ICZN","RU2","Ruiselede:R1","18/05/2009"
"event","en","https://creativecommons.org/licenses/by-nc/4.0/","modirisk:Ruiselede:2:15","RBINS","http://www.inbo.be/en/norms-for-data-use","RBINS","MODIRISK:Monitoring of Mosquito Vectors, Longitudinal study","RBINS","humanObservation","BE","Ruiselede","Animalia","ICZN","RU2","Ruiselede:R1","1/06/2009"
"event","en","https://creativecommons.org/licenses/by-nc/4.0/","modirisk:Ruiselede:2:16","RBINS","http://www.inbo.be/en/norms-for-data-use","RBINS","MODIRISK:Monitoring of Mosquito Vectors, Longitudinal study","RBINS","humanObservation","BE","Ruiselede","Animalia","ICZN","RU2","Ruiselede:R1","15/06/2009"
"event","en","https://creativecommons.org/licenses/by-nc/4.0/","modirisk:Ruiselede:2:17","RBINS","http://www.inbo.be/en/norms-for-data-use","RBINS","MODIRISK:Monitoring of Mosquito Vectors, Longitudinal study","RBINS","humanObservation","BE","Ruiselede","Animalia","ICZN","RU2","Ruiselede:R1","29/06/2009"
"event","en","https://creativecommons.org/licenses/by-nc/4.0/","modirisk:Ruiselede:2:18","RBINS","http://www.inbo.be/en/norms-for-data-use","RBINS","MODIRISK:Monitoring of Mosquito Vectors, Longitudinal study","RBINS","humanObservation","BE","Ruiselede","Animalia","ICZN","RU2","Ruiselede:R1","13/07/2009"
"event","en","https://creativecommons.org/licenses/by-nc/4.0/","modirisk:Ruiselede:2:19","RBINS","http://www.inbo.be/en/norms-for-data-use","RBINS","MODIRISK:Monitoring of Mosquito Vectors, Longitudinal study","RBINS","humanObservation","BE","Ruiselede","Animalia","ICZN","RU2","Ruiselede:R1","27/07/2009"
"event","en","https://creativecommons.org/licenses/by-nc/4.0/","modirisk:Ruiselede:2:20","RBINS","http://www.inbo.be/en/norms-for-data-use","RBINS","MODIRISK:Monitoring of Mosquito Vectors, Longitudinal study","RBINS","humanObservation","BE","Ruiselede","Animalia","ICZN","RU2","Ruiselede:R1","10/08/2009"
"event","en","https://creativecommons.org/licenses/by-nc/4.0/","modirisk:Ruiselede:2:21","RBINS","http://www.inbo.be/en/norms-for-data-use","RBINS","MODIRISK:Monitoring of Mosquito Vectors, Longitudinal study","RBINS","humanObservation","BE","Ruiselede","Animalia","ICZN","RU2","Ruiselede:R1","24/08/2009"
"event","en","https://creativecommons.org/licenses/by-nc/4.0/","modirisk:Ruiselede:2:22","RBINS","http://www.inbo.be/en/norms-for-data-use","RBINS","MODIRISK:Monitoring of Mosquito Vectors, Longitudinal study","RBINS","humanObservation","BE","Ruiselede","Animalia","ICZN","RU2","Ruiselede:R1","7/09/2009"
"event","en","https://creativecommons.org/licenses/by-nc/4.0/","modirisk:Torhout:1:1","RBINS","http://www.inbo.be/en/norms-for-data-use","RBINS","MODIRISK:Monitoring of Mosquito Vectors, Longitudinal study","RBINS","humanObservation","BE","Torhout","Animalia","ICZN","RU1","Torhout:T1","20/04/2009"
"event","en","https://creativecommons.org/licenses/by-nc/4.0/","modirisk:Torhout:1:10","RBINS","http://www.inbo.be/en/norms-for-data-use","RBINS","MODIRISK:Monitoring of Mosquito Vectors, Longitudinal study","RBINS","humanObservation","BE","Torhout","Animalia","ICZN","RU1","Torhout:T1","24/08/2009"
"event","en","https://creativecommons.org/licenses/by-nc/4.0/","modirisk:Torhout:1:11","RBINS","http://www.inbo.be/en/norms-for-data-use","RBINS","MODIRISK:Monitoring of Mosquito Vectors, Longitudinal study","RBINS","humanObservation","BE","Torhout","Animalia","ICZN","RU1","Torhout:T1","7/09/2009"
"event","en","https://creativecommons.org/licenses/by-nc/4.0/","modirisk:Torhout:1:12","RBINS","http://www.inbo.be/en/norms-for-data-use","RBINS","MODIRISK:Monitoring of Mosquito Vectors, Longitudinal study","RBINS","humanObservation","BE","Torhout","Animalia","ICZN","RU1","Torhout:T1","21/09/2009"
"event","en","https://creativecommons.org/licenses/by-nc/4.0/","modirisk:Torhout:1:13","RBINS","http://www.inbo.be/en/norms-for-data-use","RBINS","MODIRISK:Monitoring of Mosquito Vectors, Longitudinal study","RBINS","humanObservation","BE","Torhout","Animalia","ICZN","RU1","Torhout:T1","5/10/2009"
"event","en","https://creativecommons.org/licenses/by-nc/4.0/","modirisk:Torhout:1:2","RBINS","http://www.inbo.be/en/norms-for-data-use","RBINS","MODIRISK:Monitoring of Mosquito Vectors, Longitudinal study","RBINS","humanObservation","BE","Torhout","Animalia","ICZN","RU1","Torhout:T1","4/05/2009"
"event","en","https://creativecommons.org/licenses/by-nc/4.0/","modirisk:Torhout:1:3","RBINS","http://www.inbo.be/en/norms-for-data-use","RBINS","MODIRISK:Monitoring of Mosquito Vectors, Longitudinal study","RBINS","humanObservation","BE","Torhout","Animalia","ICZN","RU1","Torhout:T1","18/05/2009"
"event","en","https://creativecommons.org/licenses/by-nc/4.0/","modirisk:Torhout:1:4","RBINS","http://www.inbo.be/en/norms-for-data-use","RBINS","MODIRISK:Monitoring of Mosquito Vectors, Longitudinal study","RBINS","humanObservation","BE","Torhout","Animalia","ICZN","RU1","Torhout:T1","1/06/2009"
"event","en","https://creativecommons.org/licenses/by-nc/4.0/","modirisk:Torhout:1:5","RBINS","http://www.inbo.be/en/norms-for-data-use","RBINS","MODIRISK:Monitoring of Mosquito Vectors, Longitudinal study","RBINS","humanObservation","BE","Torhout","Animalia","ICZN","RU1","Torhout:T1","15/06/2009"
"event","en","https://creativecommons.org/licenses/by-nc/4.0/","modirisk:Torhout:1:6","RBINS","http://www.inbo.be/en/norms-for-data-use","RBINS","MODIRISK:Monitoring of Mosquito Vectors, Longitudinal study","RBINS","humanObservation","BE","Torhout","Animalia","ICZN","RU1","Torhout:T1","29/06/2009"
"event","en","https://creativecommons.org/licenses/by-nc/4.0/","modirisk:Torhout:1:7","RBINS","http://www.inbo.be/en/norms-for-data-use","RBINS","MODIRISK:Monitoring of Mosquito Vectors, Longitudinal study","RBINS","humanObservation","BE","Torhout","Animalia","ICZN","RU1","Torhout:T1","13/07/2009"
"event","en","https://creativecommons.org/licenses/by-nc/4.0/","modirisk:Torhout:1:8","RBINS","http://www.inbo.be/en/norms-for-data-use","RBINS","MODIRISK:Monitoring of Mosquito Vectors, Longitudinal study","RBINS","humanObservation","BE","Torhout","Animalia","ICZN","RU1","Torhout:T1","27/07/2009"
"event","en","https://creativecommons.org/licenses/by-nc/4.0/","modirisk:Torhout:1:9","RBINS","http://www.inbo.be/en/norms-for-data-use","RBINS","MODIRISK:Monitoring of Mosquito Vectors, Longitudinal study","RBINS","humanObservation","BE","Torhout","Animalia","ICZN","RU1","Torhout:T1","10/08/2009"
"event","en","https://creativecommons.org/licenses/by-nc/4.0/","modirisk:Torhout:2:14","RBINS","http://www.inbo.be/en/norms-for-data-use","RBINS","MODIRISK:Monitoring of Mosquito Vectors, Longitudinal study","RBINS","humanObservation","BE","Torhout","Animalia","ICZN","RU2","Torhout:T1","4/05/2009"
"event","en","https://creativecommons.org/licenses/by-nc/4.0/","modirisk:Torhout:2:15","RBINS","http://www.inbo.be/en/norms-for-data-use","RBINS","MODIRISK:Monitoring of Mosquito Vectors, Longitudinal study","RBINS","humanObservation","BE","Torhout","Animalia","ICZN","RU2","Torhout:T1","18/05/2009"
"event","en","https://creativecommons.org/licenses/by-nc/4.0/","modirisk:Torhout:2:16","RBINS","http://www.inbo.be/en/norms-for-data-use","RBINS","MODIRISK:Monitoring of Mosquito Vectors, Longitudinal study","RBINS","humanObservation","BE","Torhout","Animalia","ICZN","RU2","Torhout:T1","1/06/2009"
"event","en","https://creativecommons.org/licenses/by-nc/4.0/","modirisk:Torhout:2:17","RBINS","http://www.inbo.be/en/norms-for-data-use","RBINS","MODIRISK:Monitoring of Mosquito Vectors, Longitudinal study","RBINS","humanObservation","BE","Torhout","Animalia","ICZN","RU2","Torhout:T1","15/06/2009"
"event","en","https://creativecommons.org/licenses/by-nc/4.0/","modirisk:Torhout:2:18","RBINS","http://www.inbo.be/en/norms-for-data-use","RBINS","MODIRISK:Monitoring of Mosquito Vectors, Longitudinal study","RBINS","humanObservation","BE","Torhout","Animalia","ICZN","RU2","Torhout:T1","29/06/2009"
"event","en","https://creativecommons.org/licenses/by-nc/4.0/","modirisk:Torhout:2:19","RBINS","http://www.inbo.be/en/norms-for-data-use","RBINS","MODIRISK:Monitoring of Mosquito Vectors, Longitudinal study","RBINS","humanObservation","BE","Torhout","Animalia","ICZN","RU2","Torhout:T1","13/07/2009"
"event","en","https://creativecommons.org/licenses/by-nc/4.0/","modirisk:Torhout:2:20","RBINS","http://www.inbo.be/en/norms-for-data-use","RBINS","MODIRISK:Monitoring of Mosquito Vectors, Longitudinal study","RBINS","humanObservation","BE","Torhout","Animalia","ICZN","RU2","Torhout:T1","27/07/2009"
"event","en","https://creativecommons.org/licenses/by-nc/4.0/","modirisk:Torhout:2:21","RBINS","http://www.inbo.be/en/norms-for-data-use","RBINS","MODIRISK:Monitoring of Mosquito Vectors, Longitudinal study","RBINS","humanObservation","BE","Torhout","Animalia","ICZN","RU2","Torhout:T1","10/08/2009"
"event","en","https://creativecommons.org/licenses/by-nc/4.0/","modirisk:Torhout:2:22","RBINS","http://www.inbo.be/en/norms-for-data-use","RBINS","MODIRISK:Monitoring of Mosquito Vectors, Longitudinal study","RBINS","humanObservation","BE","Torhout","Animalia","ICZN","RU2","Torhout:T1","24/08/2009"
"event","en","https://creativecommons.org/licenses/by-nc/4.0/","modirisk:Torhout:2:23","RBINS","http://www.inbo.be/en/norms-for-data-use","RBINS","MODIRISK:Monitoring of Mosquito Vectors, Longitudinal study","RBINS","humanObservation","BE","Torhout","Animalia","ICZN","RU2","Torhout:T1","7/09/2009"
"event","en","https://creativecommons.org/licenses/by-nc/4.0/","modirisk:Torhout:2:24","RBINS","http://www.inbo.be/en/norms-for-data-use","RBINS","MODIRISK:Monitoring of Mosquito Vectors, Longitudinal study","RBINS","humanObservation","BE","Torhout","Animalia","ICZN","RU2","Torhout:T1","21/09/2009"
"event","en","https://creativecommons.org/licenses/by-nc/4.0/","modirisk:Torhout:2:25","RBINS","http://www.inbo.be/en/norms-for-data-use","RBINS","MODIRISK:Monitoring of Mosquito Vectors, Longitudinal study","RBINS","humanObservation","BE","Torhout","Animalia","ICZN","RU2","Torhout:T1","5/10/2009"
"event","en","https://creativecommons.org/licenses/by-nc/4.0/","modirisk:maasmechelen:mA1:1","RBINS","http://www.inbo.be/en/norms-for-data-use","RBINS","MODIRISK:Monitoring of Mosquito Vectors, Longitudinal study","RBINS","humanObservation","BE","Maasmechelen","Animalia","ICZN","MA1","Maasmechelen:MA1","20/04/2009"
"event","en","https://creativecommons.org/licenses/by-nc/4.0/","modirisk:maasmechelen:mA1:10","RBINS","http://www.inbo.be/en/norms-for-data-use","RBINS","MODIRISK:Monitoring of Mosquito Vectors, Longitudinal study","RBINS","humanObservation","BE","Maasmechelen","Animalia","ICZN","MA1","Maasmechelen:MA1","24/08/2009"
"event","en","https://creativecommons.org/licenses/by-nc/4.0/","modirisk:maasmechelen:mA1:11","RBINS","http://www.inbo.be/en/norms-for-data-use","RBINS","MODIRISK:Monitoring of Mosquito Vectors, Longitudinal study","RBINS","humanObservation","BE","Maasmechelen","Animalia","ICZN","MA1","Maasmechelen:MA1","7/09/2009"
"event","en","https://creativecommons.org/licenses/by-nc/4.0/","modirisk:maasmechelen:mA1:12","RBINS","http://www.inbo.be/en/norms-for-data-use","RBINS","MODIRISK:Monitoring of Mosquito Vectors, Longitudinal study","RBINS","humanObservation","BE","Maasmechelen","Animalia","ICZN","MA1","Maasmechelen:MA1","21/09/2009"
"event","en","https://creativecommons.org/licenses/by-nc/4.0/","modirisk:maasmechelen:mA1:13","RBINS","http://www.inbo.be/en/norms-for-data-use","RBINS","MODIRISK:Monitoring of Mosquito Vectors, Longitudinal study","RBINS","humanObservation","BE","Maasmechelen","Animalia","ICZN","MA1","Maasmechelen:MA1","5/10/2009"
"event","en","https://creativecommons.org/licenses/by-nc/4.0/","modirisk:maasmechelen:mA1:14","RBINS","http://www.inbo.be/en/norms-for-data-use","RBINS","MODIRISK:Monitoring of Mosquito Vectors, Longitudinal study","RBINS","humanObservation","BE","Maasmechelen","Animalia","ICZN","MA1","Maasmechelen:MA1","12/10/2009"
"event","en","https://creativecommons.org/licenses/by-nc/4.0/","modirisk:maasmechelen:mA1:2","RBINS","http://www.inbo.be/en/norms-for-data-use","RBINS","MODIRISK:Monitoring of Mosquito Vectors, Longitudinal study","RBINS","humanObservation","BE","Maasmechelen","Animalia","ICZN","MA1","Maasmechelen:MA1","4/05/2009"
"event","en","https://creativecommons.org/licenses/by-nc/4.0/","modirisk:maasmechelen:mA1:3","RBINS","http://www.inbo.be/en/norms-for-data-use","RBINS","MODIRISK:Monitoring of Mosquito Vectors, Longitudinal study","RBINS","humanObservation","BE","Maasmechelen","Animalia","ICZN","MA1","Maasmechelen:MA1","18/05/2009"
"event","en","https://creativecommons.org/licenses/by-nc/4.0/","modirisk:maasmechelen:mA1:4","RBINS","http://www.inbo.be/en/norms-for-data-use","RBINS","MODIRISK:Monitoring of Mosquito Vectors, Longitudinal study","RBINS","humanObservation","BE","Maasmechelen","Animalia","ICZN","MA1","Maasmechelen:MA1","1/06/2009"
"event","en","https://creativecommons.org/licenses/by-nc/4.0/","modirisk:maasmechelen:mA1:5","RBINS","http://www.inbo.be/en/norms-for-data-use","RBINS","MODIRISK:Monitoring of Mosquito Vectors, Longitudinal study","RBINS","humanObservation","BE","Maasmechelen","Animalia","ICZN","MA1","Maasmechelen:MA1","15/06/2009"
"event","en","https://creativecommons.org/licenses/by-nc/4.0/","modirisk:maasmechelen:mA1:6","RBINS","http://www.inbo.be/en/norms-for-data-use","RBINS","MODIRISK:Monitoring of Mosquito Vectors, Longitudinal study","RBINS","humanObservation","BE","Maasmechelen","Animalia","ICZN","MA1","Maasmechelen:MA1","29/06/2009"
"event","en","https://creativecommons.org/licenses/by-nc/4.0/","modirisk:maasmechelen:mA1:7","RBINS","http://www.inbo.be/en/norms-for-data-use","RBINS","MODIRISK:Monitoring of Mosquito Vectors, Longitudinal study","RBINS","humanObservation","BE","Maasmechelen","Animalia","ICZN","MA1","Maasmechelen:MA1","13/07/2009"
"event","en","https://creativecommons.org/licenses/by-nc/4.0/","modirisk:maasmechelen:mA1:8","RBINS","http://www.inbo.be/en/norms-for-data-use","RBINS","MODIRISK:Monitoring of Mosquito Vectors, Longitudinal study","RBINS","humanObservation","BE","Maasmechelen","Animalia","ICZN","MA1","Maasmechelen:MA1","27/07/2009"
"event","en","https://creativecommons.org/licenses/by-nc/4.0/","modirisk:maasmechelen:mA1:9","RBINS","http://www.inbo.be/en/norms-for-data-use","RBINS","MODIRISK:Monitoring of Mosquito Vectors, Longitudinal study","RBINS","humanObservation","BE","Maasmechelen","Animalia","ICZN","MA1","Maasmechelen:MA1","10/08/2009"
"event","en","https://creativecommons.org/licenses/by-nc/4.0/","modirisk:maasmechelen:mA2:1","RBINS","http://www.inbo.be/en/norms-for-data-use","RBINS","MODIRISK:Monitoring of Mosquito Vectors, Longitudinal study","RBINS","humanObservation","BE","Maasmechelen","Animalia","ICZN","MA2","Maasmechelen:MA2","20/04/2009"
"event","en","https://creativecommons.org/licenses/by-nc/4.0/","modirisk:maasmechelen:mA2:10","RBINS","http://www.inbo.be/en/norms-for-data-use","RBINS","MODIRISK:Monitoring of Mosquito Vectors, Longitudinal study","RBINS","humanObservation","BE","Maasmechelen","Animalia","ICZN","MA2","Maasmechelen:MA2","24/08/2009"
"event","en","https://creativecommons.org/licenses/by-nc/4.0/","modirisk:maasmechelen:mA2:11","RBINS","http://www.inbo.be/en/norms-for-data-use","RBINS","MODIRISK:Monitoring of Mosquito Vectors, Longitudinal study","RBINS","humanObservation","BE","Maasmechelen","Animalia","ICZN","MA2","Maasmechelen:MA2","7/09/2009"
"event","en","https://creativecommons.org/licenses/by-nc/4.0/","modirisk:maasmechelen:mA2:12","RBINS","http://www.inbo.be/en/norms-for-data-use","RBINS","MODIRISK:Monitoring of Mosquito Vectors, Longitudinal study","RBINS","humanObservation","BE","Maasmechelen","Animalia","ICZN","MA2","Maasmechelen:MA2","21/09/2009"
"event","en","https://creativecommons.org/licenses/by-nc/4.0/","modirisk:maasmechelen:mA2:13","RBINS","http://www.inbo.be/en/norms-for-data-use","RBINS","MODIRISK:Monitoring of Mosquito Vectors, Longitudinal study","RBINS","humanObservation","BE","Maasmechelen","Animalia","ICZN","MA2","Maasmechelen:MA2","5/10/2009"
"event","en","https://creativecommons.org/licenses/by-nc/4.0/","modirisk:maasmechelen:mA2:14","RBINS","http://www.inbo.be/en/norms-for-data-use","RBINS","MODIRISK:Monitoring of Mosquito Vectors, Longitudinal study","RBINS","humanObservation","BE","Maasmechelen","Animalia","ICZN","MA2","Maasmechelen:MA2","12/10/2009"
"event","en","https://creativecommons.org/licenses/by-nc/4.0/","modirisk:maasmechelen:mA2:2","RBINS","http://www.inbo.be/en/norms-for-data-use","RBINS","MODIRISK:Monitoring of Mosquito Vectors, Longitudinal study","RBINS","humanObservation","BE","Maasmechelen","Animalia","ICZN","MA2","Maasmechelen:MA2","4/05/2009"
"event","en","https://creativecommons.org/licenses/by-nc/4.0/","modirisk:maasmechelen:mA2:3","RBINS","http://www.inbo.be/en/norms-for-data-use","RBINS","MODIRISK:Monitoring of Mosquito Vectors, Longitudinal study","RBINS","humanObservation","BE","Maasmechelen","Animalia","ICZN","MA2","Maasmechelen:MA2","18/05/2009"
"event","en","https://creativecommons.org/licenses/by-nc/4.0/","modirisk:maasmechelen:mA2:4","RBINS","http://www.inbo.be/en/norms-for-data-use","RBINS","MODIRISK:Monitoring of Mosquito Vectors, Longitudinal study","RBINS","humanObservation","BE","Maasmechelen","Animalia","ICZN","MA2","Maasmechelen:MA2","1/06/2009"
"event","en","https://creativecommons.org/licenses/by-nc/4.0/","modirisk:maasmechelen:mA2:5","RBINS","http://www.inbo.be/en/norms-for-data-use","RBINS","MODIRISK:Monitoring of Mosquito Vectors, Longitudinal study","RBINS","humanObservation","BE","Maasmechelen","Animalia","ICZN","MA2","Maasmechelen:MA2","15/06/2009"
"event","en","https://creativecommons.org/licenses/by-nc/4.0/","modirisk:maasmechelen:mA2:6","RBINS","http://www.inbo.be/en/norms-for-data-use","RBINS","MODIRISK:Monitoring of Mosquito Vectors, Longitudinal study","RBINS","humanObservation","BE","Maasmechelen","Animalia","ICZN","MA2","Maasmechelen:MA2","29/06/2009"
"event","en","https://creativecommons.org/licenses/by-nc/4.0/","modirisk:maasmechelen:mA2:7","RBINS","http://www.inbo.be/en/norms-for-data-use","RBINS","MODIRISK:Monitoring of Mosquito Vectors, Longitudinal study","RBINS","humanObservation","BE","Maasmechelen","Animalia","ICZN","MA2","Maasmechelen:MA2","13/07/2009"
"event","en","https://creativecommons.org/licenses/by-nc/4.0/","modirisk:maasmechelen:mA2:8","RBINS","http://www.inbo.be/en/norms-for-data-use","RBINS","MODIRISK:Monitoring of Mosquito Vectors, Longitudinal study","RBINS","humanObservation","BE","Maasmechelen","Animalia","ICZN","MA2","Maasmechelen:MA2","27/07/2009"
"event","en","https://creativecommons.org/licenses/by-nc/4.0/","modirisk:maasmechelen:mA2:9","RBINS","http://www.inbo.be/en/norms-for-data-use","RBINS","MODIRISK:Monitoring of Mosquito Vectors, Longitudinal study","RBINS","humanObservation","BE","Maasmechelen","Animalia","ICZN","MA2","Maasmechelen:MA2","10/08/2009"
